EUTELSAT QUANTUM        
1 49056U 21069B   26002.75696845  .00000132  00000+0  00000+0 0  9996
2 49056   0.0142  32.2949 0003791 254.8161 135.4773  1.00270544 16267
EUTELSAT KONNECT VHTS   
1 53765U 22110A   26002.39143786  .00000024  00000+0  00000+0 0  9997
2 53765   0.0572  97.3236 0002833 151.1253 357.1995  1.00271492  5174
EUTELSAT HOTBIRD 13F    
1 54048U 22134A   26002.32071738  .00000095  00000+0  00000+0 0  9996
2 54048   0.0547 290.9517 0002233  63.2782 236.1618  1.00270503 11715
EUTELSAT HOTBIRD 13G    
1 54225U 22146A   26002.32071738  .00000095  00000+0  00000+0 0  9996
2 54225   0.0627 223.9235 0001903 321.9582  44.5151  1.00270009  5806
EUTELSAT 10B            
1 54259U 22157A   26002.39273786  .00000074  00000+0  00000+0 0  9996
2 54259   0.0594  93.9981 0001555  93.9102  65.4865  1.00263603 11360
EUTELSAT 36D            
1 59346U 24059A   26002.46935170  .00000000  00000+0  00000+0 0  9990
2 59346   0.0290  44.1873 0000502 264.7011 358.0728  1.00269982  6483
